STARLINK-32220          
1 60370U 24138R   25301.02189773  .00000374  00000+0  24763-4 0  9991
2 60370  53.1591 205.9684 0001130  76.4183 283.6943 15.30194819 70317
STARLINK-32263          
1 60371U 24138S   25302.41871968  .00002102  00000+0  83060-4 0  9996
2 60371  53.1583 199.0458 0001166  84.2704 275.8430 15.30200398 70433
STARLINK-32268          
1 60372U 24138T   25301.42855818  .00002299  00000+0  89723-4 0  9992
2 60372  53.1597 204.2420 0001130 102.7097 257.4030 15.30202841 70379
STARLINK-32223          
1 60373U 24138U   25302.45354381  .00000363  00000+0  24389-4 0  9993
2 60373  53.1594 199.2610 0001232  77.2721 282.8417 15.30197986 70435
STARLINK-32180          
1 60374U 24138V   25302.45565774  .00000301  00000+0  22297-4 0  9992
2 60374  53.1591 199.2725 0001370  65.1743 294.9400 15.30195498 70536
STARLINK-32281          
1 60375U 24138W   25301.44850178  .00001184  00000+0  52104-4 0  9996
2 60375  53.1597 203.6558 0001362  91.6020 268.5137 15.30190432 70289
STARLINK-32277          
1 60376U 24138X   25301.02506782  .00000301  00000+0  22289-4 0  9991
2 60376  53.1602 205.9826 0001136  74.5431 285.5695 15.30192041 70315
STARLINK-32269          
1 60377U 24138Y   25302.44615737  .00000226  00000+0  19769-4 0  9995
2 60377  53.1612 199.2114 0001374  90.3493 269.7665 15.30193901 70531
STARLINK-11228 [DTC]    
1 60398U 24141A   25302.47325734 -.00000272  00000+0  26176-5 0  9993
2 60398  53.1596  13.1305 0001313  93.7652 266.3516 15.69714022 71082
STARLINK-11182 [DTC]    
1 60399U 24141B   25302.45854249  .00000305  00000+0  73756-5 0  9992
2 60399  53.1585  13.0348 0001168  77.2612 282.8536 15.69710893 71131
STARLINK-11234 [DTC]    
1 60400U 24141C   25302.45363650  .00000366  00000+0  78752-5 0  9994
2 60400  53.1580  12.9996 0001085  90.5266 269.5876 15.69711516 71083
STARLINK-11232 [DTC]    
1 60401U 24141D   25302.44873293 -.00000592  00000+0 -26299-7 0  9997
2 60401  53.1594  12.9674 0001250  81.4908 278.6251 15.69711897 71134
STARLINK-11139 [DTC]    
1 60402U 24141E   25302.44382311 -.00000946  00000+0 -29515-5 0  9999
2 60402  53.1594  12.9366 0001031  90.2384 269.8752 15.69715736 71130
STARLINK-11158 [DTC]    
1 60403U 24141F   25302.43901594  .00000617  00000+0  99495-5 0  9996
2 60403  53.1593  13.6357 0001237  97.8009 262.3150 15.69718151 71070
STARLINK-11199 [DTC]    
1 60404U 24141G   25302.49777735  .00000212  00000+0  66042-5 0  9994
2 60404  53.1586  13.2898 0001053  96.2282 263.8856 15.69719994 71133
STARLINK-11081 [DTC]    
1 60405U 24141H   25302.49287698 -.00000173  00000+0  34319-5 0  9998
2 60405  53.1589  13.2592 0001073 108.9636 251.1498 15.69714564 71088
