[{"OBJECT_NAME":"STARLINK-32220","OBJECT_ID":"2024-138R","EPOCH":"2025-10-28T00:31:31.963872","MEAN_MOTION":15.30194819,"ECCENTRICITY":0.00011308,"INCLINATION":53.1591,"RA_OF_ASC_NODE":205.9684,"ARG_OF_PERICENTER":76.4183,"MEAN_ANOMALY":283.6943,"EPHEMERIS_TYPE":0,"CLASSIFICATION_TYPE":"U","NORAD_CAT_ID":60370,"ELEMENT_SET_NO":999,"REV_AT_EPOCH":7031,"BSTAR":2.4762991e-5,"MEAN_MOTION_DOT":3.74e-6,"MEAN_MOTION_DDOT":0},{"OBJECT_NAME":"STARLINK-32263","OBJECT_ID":"2024-138S","EPOCH":"2025-10-29T10:02:57.380352","MEAN_MOTION":15.30200398,"ECCENTRICITY":0.0001166,"INCLINATION":53.1583,"RA_OF_ASC_NODE":199.0458,"ARG_OF_PERICENTER":84.2704,"MEAN_ANOMALY":275.843,"EPHEMERIS_TYPE":0,"CLASSIFICATION_TYPE":"U","NORAD_CAT_ID":60371,"ELEMENT_SET_NO":999,"REV_AT_EPOCH":7043,"BSTAR":8.306e-5,"MEAN_MOTION_DOT":2.102e-5,"MEAN_MOTION_DDOT":0},{"OBJECT_NAME":"STARLINK-32268","OBJECT_ID":"2024-138T","EPOCH":"2025-10-28T10:17:07.426752","MEAN_MOTION":15.30202841,"ECCENTRICITY":0.00011304,"INCLINATION":53.1597,"RA_OF_ASC_NODE":204.242,"ARG_OF_PERICENTER":102.7097,"MEAN_ANOMALY":257.403,"EPHEMERIS_TYPE":0,"CLASSIFICATION_TYPE":"U","NORAD_CAT_ID":60372,"ELEMENT_SET_NO":999,"REV_AT_EPOCH":7037,"BSTAR":8.9723134e-5,"MEAN_MOTION_DOT":2.299e-5,"MEAN_MOTION_DDOT":0},{"OBJECT_NAME":"STARLINK-32223","OBJECT_ID":"2024-138U","EPOCH":"2025-10-29T10:53:06.185184","MEAN_MOTION":15.30197986,"ECCENTRICITY":0.0001232,"INCLINATION":53.1594,"RA_OF_ASC_NODE":199.261,"ARG_OF_PERICENTER":77.2721,"MEAN_ANOMALY":282.8417,"EPHEMERIS_TYPE":0,"CLASSIFICATION_TYPE":"U","NORAD_CAT_ID":60373,"ELEMENT_SET_NO":999,"REV_AT_EPOCH":7043,"BSTAR":2.4389e-5,"MEAN_MOTION_DOT":3.63e-6,"MEAN_MOTION_DDOT":0},{"OBJECT_NAME":"STARLINK-32180","OBJECT_ID":"2024-138V","EPOCH":"2025-10-29T10:56:08.828736","MEAN_MOTION":15.30195498,"ECCENTRICITY":0.000137,"INCLINATION":53.1591,"RA_OF_ASC_NODE":199.2725,"ARG_OF_PERICENTER":65.1743,"MEAN_ANOMALY":294.94,"EPHEMERIS_TYPE":0,"CLASSIFICATION_TYPE":"U","NORAD_CAT_ID":60374,"ELEMENT_SET_NO":999,"REV_AT_EPOCH":7053,"BSTAR":2.2297e-5,"MEAN_MOTION_DOT":3.01e-6,"MEAN_MOTION_DDOT":0},{"OBJECT_NAME":"STARLINK-32281","OBJECT_ID":"2024-138W","EPOCH":"2025-10-28T10:45:50.553792","MEAN_MOTION":15.30190432,"ECCENTRICITY":0.00013625,"INCLINATION":53.1597,"RA_OF_ASC_NODE":203.6558,"ARG_OF_PERICENTER":91.602,"MEAN_ANOMALY":268.5137,"EPHEMERIS_TYPE":0,"CLASSIFICATION_TYPE":"U","NORAD_CAT_ID":60375,"ELEMENT_SET_NO":999,"REV_AT_EPOCH":7028,"BSTAR":5.21036e-5,"MEAN_MOTION_DOT":1.184e-5,"MEAN_MOTION_DDOT":0},{"OBJECT_NAME":"STARLINK-32277","OBJECT_ID":"2024-138X","EPOCH":"2025-10-28T00:36:05.859648","MEAN_MOTION":15.30192041,"ECCENTRICITY":0.00011366,"INCLINATION":53.1602,"RA_OF_ASC_NODE":205.9826,"ARG_OF_PERICENTER":74.5431,"MEAN_ANOMALY":285.5695,"EPHEMERIS_TYPE":0,"CLASSIFICATION_TYPE":"U","NORAD_CAT_ID":60376,"ELEMENT_SET_NO":999,"REV_AT_EPOCH":7031,"BSTAR":2.2289217e-5,"MEAN_MOTION_DOT":3.01e-6,"MEAN_MOTION_DDOT":0},{"OBJECT_NAME":"STARLINK-32269","OBJECT_ID":"2024-138Y","EPOCH":"2025-10-29T10:42:27.996768","MEAN_MOTION":15.30193901,"ECCENTRICITY":0.0001374,"INCLINATION":53.1612,"RA_OF_ASC_NODE":199.2114,"ARG_OF_PERICENTER":90.3493,"MEAN_ANOMALY":269.7665,"EPHEMERIS_TYPE":0,"CLASSIFICATION_TYPE":"U","NORAD_CAT_ID":60377,"ELEMENT_SET_NO":999,"REV_AT_EPOCH":7053,"BSTAR":1.9769e-5,"MEAN_MOTION_DOT":2.26e-6,"MEAN_MOTION_DDOT":0},{"OBJECT_NAME":"STARLINK-11228 [DTC]","OBJECT_ID":"2024-141A","EPOCH":"2025-10-29T11:21:29.434176","MEAN_MOTION":15.69714022,"ECCENTRICITY":0.0001313,"INCLINATION":53.1596,"RA_OF_ASC_NODE":13.1305,"ARG_OF_PERICENTER":93.7652,"MEAN_ANOMALY":266.3516,"EPHEMERIS_TYPE":0,"CLASSIFICATION_TYPE":"U","NORAD_CAT_ID":60398,"ELEMENT_SET_NO":999,"REV_AT_EPOCH":7108,"BSTAR":2.6176e-6,"MEAN_MOTION_DOT":-2.72e-6,"MEAN_MOTION_DDOT":0},{"OBJECT_NAME":"STARLINK-11182 [DTC]","OBJECT_ID":"2024-141B","EPOCH":"2025-10-29T11:00:18.071136","MEAN_MOTION":15.69710893,"ECCENTRICITY":0.0001168,"INCLINATION":53.1585,"RA_OF_ASC_NODE":13.0348,"ARG_OF_PERICENTER":77.2612,"MEAN_ANOMALY":282.8536,"EPHEMERIS_TYPE":0,"CLASSIFICATION_TYPE":"U","NORAD_CAT_ID":60399,"ELEMENT_SET_NO":999,"REV_AT_EPOCH":7113,"BSTAR":7.3756e-6,"MEAN_MOTION_DOT":3.05e-6,"MEAN_MOTION_DDOT":0},{"OBJECT_NAME":"STARLINK-11234 [DTC]","OBJECT_ID":"2024-141C","EPOCH":"2025-10-29T10:53:14.193600","MEAN_MOTION":15.69711516,"ECCENTRICITY":0.0001085,"INCLINATION":53.158,"RA_OF_ASC_NODE":12.9996,"ARG_OF_PERICENTER":90.5266,"MEAN_ANOMALY":269.5876,"EPHEMERIS_TYPE":0,"CLASSIFICATION_TYPE":"U","NORAD_CAT_ID":60400,"ELEMENT_SET_NO":999,"REV_AT_EPOCH":7108,"BSTAR":7.8752e-6,"MEAN_MOTION_DOT":3.66e-6,"MEAN_MOTION_DDOT":0},{"OBJECT_NAME":"STARLINK-11232 [DTC]","OBJECT_ID":"2024-141D","EPOCH":"2025-10-29T10:46:10.525152","MEAN_MOTION":15.69711897,"ECCENTRICITY":0.000125,"INCLINATION":53.1594,"RA_OF_ASC_NODE":12.9674,"ARG_OF_PERICENTER":81.4908,"MEAN_ANOMALY":278.6251,"EPHEMERIS_TYPE":0,"CLASSIFICATION_TYPE":"U","NORAD_CAT_ID":60401,"ELEMENT_SET_NO":999,"REV_AT_EPOCH":7113,"BSTAR":-2.6299e-8,"MEAN_MOTION_DOT":-5.92e-6,"MEAN_MOTION_DDOT":0},{"OBJECT_NAME":"STARLINK-11139 [DTC]","OBJECT_ID":"2024-141E","EPOCH":"2025-10-29T10:39:06.316704","MEAN_MOTION":15.69715736,"ECCENTRICITY":0.0001031,"INCLINATION":53.1594,"RA_OF_ASC_NODE":12.9366,"ARG_OF_PERICENTER":90.2384,"MEAN_ANOMALY":269.8752,"EPHEMERIS_TYPE":0,"CLASSIFICATION_TYPE":"U","NORAD_CAT_ID":60402,"ELEMENT_SET_NO":999,"REV_AT_EPOCH":7113,"BSTAR":-2.9515e-6,"MEAN_MOTION_DOT":-9.46e-6,"MEAN_MOTION_DDOT":0},{"OBJECT_NAME":"STARLINK-11158 [DTC]","OBJECT_ID":"2024-141F","EPOCH":"2025-10-29T10:32:10.977216","MEAN_MOTION":15.69718151,"ECCENTRICITY":0.0001237,"INCLINATION":53.1593,"RA_OF_ASC_NODE":13.6357,"ARG_OF_PERICENTER":97.8009,"MEAN_ANOMALY":262.315,"EPHEMERIS_TYPE":0,"CLASSIFICATION_TYPE":"U","NORAD_CAT_ID":60403,"ELEMENT_SET_NO":999,"REV_AT_EPOCH":7107,"BSTAR":9.9495e-6,"MEAN_MOTION_DOT":6.17e-6,"MEAN_MOTION_DDOT":0},{"OBJECT_NAME":"STARLINK-11199 [DTC]","OBJECT_ID":"2024-141G","EPOCH":"2025-10-29T11:56:47.963040","MEAN_MOTION":15.69719994,"ECCENTRICITY":0.0001053,"INCLINATION":53.1586,"RA_OF_ASC_NODE":13.2898,"ARG_OF_PERICENTER":96.2282,"MEAN_ANOMALY":263.8856,"EPHEMERIS_TYPE":0,"CLASSIFICATION_TYPE":"U","NORAD_CAT_ID":60404,"ELEMENT_SET_NO":999,"REV_AT_EPOCH":7113,"BSTAR":6.6042e-6,"MEAN_MOTION_DOT":2.12e-6,"MEAN_MOTION_DDOT":0},{"OBJECT_NAME":"STARLINK-11081 [DTC]","OBJECT_ID":"2024-141H","EPOCH":"2025-10-29T11:49:44.571072","MEAN_MOTION":15.69714564,"ECCENTRICITY":0.0001073,"INCLINATION":53.1589,"RA_OF_ASC_NODE":13.2592,"ARG_OF_PERICENTER":108.9636,"MEAN_ANOMALY":251.1498,"EPHEMERIS_TYPE":0,"CLASSIFICATION_TYPE":"U","NORAD_CAT_ID":60405,"ELEMENT_SET_NO":999,"REV_AT_EPOCH":7108,"BSTAR":3.4319e-6,"MEAN_MOTION_DOT":-1.73e-6,"MEAN_MOTION_DDOT":0}]
